[{"OBJECT_NAME":"STARLINK-35477","OBJECT_ID":"2025-253V","EPOCH":"2026-03-09T09:57:46.940832","MEAN_MOTION":15.27582395,"ECCENTRICITY":0.00020924,"INCLINATION":42.9991,"RA_OF_ASC_NODE":213.9589,"ARG_OF_PERICENTER":275.6665,"MEAN_ANOMALY":84.3948,"EPHEMERIS_TYPE":0,"CLASSIFICATION_TYPE":"U","NORAD_CAT_ID":66338,"ELEMENT_SET_NO":999,"REV_AT_EPOCH":2020,"BSTAR":0.00092907269,"MEAN_MOTION_DOT":0.00025394,"MEAN_MOTION_DDOT":0},{"OBJECT_NAME":"CZ-6A DEB","OBJECT_ID":"2023-168D","EPOCH":"2026-03-09T19:03:52.964928","MEAN_MOTION":15.28240044,"ECCENTRICITY":0.00013417,"INCLINATION":97.7802,"RA_OF_ASC_NODE":98.3362,"ARG_OF_PERICENTER":174.0661,"MEAN_ANOMALY":186.0594,"EPHEMERIS_TYPE":0,"CLASSIFICATION_TYPE":"U","NORAD_CAT_ID":58202,"ELEMENT_SET_NO":999,"REV_AT_EPOCH":12922,"BSTAR":0.0014474773,"MEAN_MOTION_DOT":0.00039923,"MEAN_MOTION_DDOT":0}]
